start=new Date('2023-05-13T00:00:00.000Z').valueOf();
sats=[{"CLASSIFICATION_TYPE":"U","COUNTRY_CODE":"US","MEAN_ELEMENT_THEORY":"SGP4","TLE_LINE2":"2 53002  53.2169  45.5687 0000944  86.6054 273.5046 15.08851779 47569","NORAD_CAT_ID":"53002","RCS_SIZE":"LARGE","EPHEMERIS_TYPE":"0","ECCENTRICITY":"0.00009440","GP_ID":"231685427","FILE":"3906353","TLE_LINE1":"1 53002U 22076S   23132.99658828  .00003042  00000-0  20903-3 0  9999","EPOCH":"2023-05-12T23:55:05.227392","DECAY_DATE":null,"MEAN_MOTION_DDOT":"0.0000000000000","LAUNCH_DATE":"2022-07-07","PERIAPSIS":"539.056","REV_AT_EPOCH":"4756","ARG_OF_PERICENTER":"86.6054","OBJECT_ID":"2022-076S","ELEMENT_SET_NO":"999","INCLINATION":"53.2169","SEMIMAJOR_AXIS":"6917.844","REF_FRAME":"TEME","RA_OF_ASC_NODE":"45.5687","BSTAR":"0.00020903000000","OBJECT_TYPE":"PAYLOAD","APOAPSIS":"540.362","MEAN_MOTION_DOT":"0.00003042","OBJECT_NAME":"STARLINK-4121","MEAN_MOTION":"15.08851779","TIME_SYSTEM":"UTC","MEAN_ANOMALY":"273.5046","PERIOD":"95.437","SITE":"AFETR","CENTER_NAME":"EARTH"},{"MEAN_MOTION_DOT":"0.00002035","APOAPSIS":"540.621","OBJECT_NAME":"STARLINK-4255","OBJECT_TYPE":"PAYLOAD","MEAN_ANOMALY":"289.9770","TIME_SYSTEM":"UTC","SITE":"AFETR","CENTER_NAME":"EARTH","PERIOD":"95.438","MEAN_MOTION":"15.08838370","OBJECT_ID":"2022-076T","ELEMENT_SET_NO":"999","INCLINATION":"53.2165","PERIAPSIS":"538.880","LAUNCH_DATE":"2022-07-07","ARG_OF_PERICENTER":"70.1358","REV_AT_EPOCH":"4695","BSTAR":"0.00014590000000","RA_OF_ASC_NODE":"49.8315","SEMIMAJOR_AXIS":"6917.885","REF_FRAME":"TEME","TLE_LINE1":"1 53003U 22076T   23132.04715501  .00002035  00000-0  14590-3 0  9994","GP_ID":"231671898","ECCENTRICITY":"0.00012580","FILE":"3905921","DECAY_DATE":null,"EPOCH":"2023-05-12T01:07:54.192864","MEAN_MOTION_DDOT":"0.0000000000000","RCS_SIZE":"LARGE","NORAD_CAT_ID":"53003","CLASSIFICATION_TYPE":"U","TLE_LINE2":"2 53003  53.2165  49.8315 0001258  70.1358 289.9770 15.08838370 46954","COUNTRY_CODE":"US","MEAN_ELEMENT_THEORY":"SGP4","EPHEMERIS_TYPE":"0"},{"TLE_LINE1":"1 53004U 22076U   23132.06186997  .00000917  00000-0  75697-4 0  9991","FILE":"3905921","ECCENTRICITY":"0.00011050","GP_ID":"231671650","EPOCH":"2023-05-12T01:29:05.565408","DECAY_DATE":null,"MEAN_MOTION_DDOT":"0.0000000000000","NORAD_CAT_ID":"53004","RCS_SIZE":"LARGE","MEAN_ELEMENT_THEORY":"SGP4","COUNTRY_CODE":"US","TLE_LINE2":"2 53004  53.2160  49.7595 0001105  86.3711 273.7408 15.08837044 46958","CLASSIFICATION_TYPE":"U","EPHEMERIS_TYPE":"0","OBJECT_NAME":"STARLINK-4253","APOAPSIS":"540.519","MEAN_MOTION_DOT":"0.00000917","OBJECT_TYPE":"PAYLOAD","PERIOD":"95.438","SITE":"AFETR","CENTER_NAME":"EARTH","MEAN_ANOMALY":"273.7408","TIME_SYSTEM":"UTC","MEAN_MOTION":"15.08837044","INCLINATION":"53.2160","ELEMENT_SET_NO":"999","OBJECT_ID":"2022-076U","ARG_OF_PERICENTER":"86.3711","REV_AT_EPOCH":"4695","LAUNCH_DATE":"2022-07-07","PERIAPSIS":"538.990","RA_OF_ASC_NODE":"49.7595","BSTAR":"0.00007569700000","REF_FRAME":"TEME","SEMIMAJOR_AXIS":"6917.889"},{"MEAN_MOTION_DDOT":"0.0000000000000","DECAY_DATE":null,"EPOCH":"2023-05-13T00:53:22.479072","TLE_LINE1":"1 53005U 22076V   23133.03706573  .00005427  00000-0  35864-3 0  9990","GP_ID":"231685198","ECCENTRICITY":"0.00011580","FILE":"3906347","EPHEMERIS_TYPE":"0","RCS_SIZE":"LARGE","NORAD_CAT_ID":"53005","CLASSIFICATION_TYPE":"U","TLE_LINE2":"2 53005  53.2172  45.3851 0001158  84.9980 275.1144 15.08857127 47575","COUNTRY_CODE":"US","MEAN_ELEMENT_THEORY":"SGP4","MEAN_ANOMALY":"275.1144","TIME_SYSTEM":"UTC","SITE":"AFETR","CENTER_NAME":"EARTH","PERIOD":"95.436","MEAN_MOTION":"15.08857127","MEAN_MOTION_DOT":"0.00005427","APOAPSIS":"540.494","OBJECT_NAME":"STARLINK-4288","OBJECT_TYPE":"PAYLOAD","RA_OF_ASC_NODE":"45.3851","BSTAR":"0.00035864000000","SEMIMAJOR_AXIS":"6917.828","REF_FRAME":"TEME","OBJECT_ID":"2022-076V","INCLINATION":"53.2172","ELEMENT_SET_NO":"999","PERIAPSIS":"538.892","LAUNCH_DATE":"2022-07-07","ARG_OF_PERICENTER":"84.9980","REV_AT_EPOCH":"4757"},{"OBJECT_TYPE":"PAYLOAD","MEAN_MOTION_DOT":"0.00003593","APOAPSIS":"540.469","OBJECT_NAME":"STARLINK-4290","MEAN_MOTION":"15.08850423","TIME_SYSTEM":"UTC","MEAN_ANOMALY":"280.2726","CENTER_NAME":"EARTH","SITE":"AFETR","PERIOD":"95.437","PERIAPSIS":"538.958","LAUNCH_DATE":"2022-07-07","ARG_OF_PERICENTER":"79.8390","REV_AT_EPOCH":"4756","OBJECT_ID":"2022-076W","INCLINATION":"53.2170","ELEMENT_SET_NO":"999","SEMIMAJOR_AXIS":"6917.849","REF_FRAME":"TEME","RA_OF_ASC_NODE":"45.6515","BSTAR":"0.00024364000000","GP_ID":"231685187","ECCENTRICITY":"0.00010920","FILE":"3906347","TLE_LINE1":"1 53006U 22076W   23132.97818958  .00003593  00000-0  24364-3 0  9999","EPOCH":"2023-05-12T23:28:35.579712","DECAY_DATE":null,"MEAN_MOTION_DDOT":"0.0000000000000","CLASSIFICATION_TYPE":"U","TLE_LINE2":"2 53006  53.2170  45.6515 0001092  79.8390 280.2726 15.08850423 47563","MEAN_ELEMENT_THEORY":"SGP4","COUNTRY_CODE":"US","RCS_SIZE":"LARGE","NORAD_CAT_ID":"53006","EPHEMERIS_TYPE":"0"},{"NORAD_CAT_ID":"53007","RCS_SIZE":"LARGE","CLASSIFICATION_TYPE":"U","COUNTRY_CODE":"US","MEAN_ELEMENT_THEORY":"SGP4","TLE_LINE2":"2 53007  53.2175  45.4161 0001319  92.5976 267.5167 15.08858954 47573","EPHEMERIS_TYPE":"0","TLE_LINE1":"1 53007U 22076X   23133.02970858  .00006798  00000-0  44455-3 0  9998","ECCENTRICITY":"0.00013190","GP_ID":"231685442","FILE":"3906347","DECAY_DATE":null,"EPOCH":"2023-05-13T00:42:46.821312","MEAN_MOTION_DDOT":"0.0000000000000","OBJECT_ID":"2022-076X","INCLINATION":"53.2175","ELEMENT_SET_NO":"999","LAUNCH_DATE":"2022-07-07","PERIAPSIS":"538.775","ARG_OF_PERICENTER":"92.5976","REV_AT_EPOCH":"4757","BSTAR":"0.00044455000000","RA_OF_ASC_NODE":"45.4161","REF_FRAME":"TEME","SEMIMAJOR_AXIS":"6917.822","APOAPSIS":"540.600","MEAN_MOTION_DOT":"0.00006798","OBJECT_NAME":"STARLINK-4215","OBJECT_TYPE":"PAYLOAD","TIME_SYSTEM":"UTC","MEAN_ANOMALY":"267.5167","PERIOD":"95.436","SITE":"AFETR","CENTER_NAME":"EARTH","MEAN_MOTION":"15.08858954"},{"MEAN_MOTION":"15.08838010","PERIOD":"95.438","CENTER_NAME":"EARTH","SITE":"AFETR","TIME_SYSTEM":"UTC","MEAN_ANOMALY":"268.5845","OBJECT_TYPE":"PAYLOAD","OBJECT_NAME":"STARLINK-4275","APOAPSIS":"540.485","MEAN_MOTION_DOT":"0.00000698","SEMIMAJOR_AXIS":"6917.886","REF_FRAME":"TEME","RA_OF_ASC_NODE":"49.5621","BSTAR":"0.00006191600000","REV_AT_EPOCH":"4696","ARG_OF_PERICENTER":"91.5269","LAUNCH_DATE":"2022-07-07","PERIAPSIS":"539.018","INCLINATION":"53.2168","ELEMENT_SET_NO":"999","OBJECT_ID":"2022-076Y","DECAY_DATE":null,"MEAN_MOTION_DDOT":"0.0000000000000","EPOCH":"2023-05-12T02:34:04.025856","FILE":"3905921","ECCENTRICITY":"0.00010600","GP_ID":"231672149","TLE_LINE1":"1 53008U 22076Y   23132.10699104  .00000698  00000-0  61916-4 0  9994","EPHEMERIS_TYPE":"0","MEAN_ELEMENT_THEORY":"SGP4","COUNTRY_CODE":"US","TLE_LINE2":"2 53008  53.2168  49.5621 0001060  91.5269 268.5845 15.08838010 46966","CLASSIFICATION_TYPE":"U","NORAD_CAT_ID":"53008","RCS_SIZE":"LARGE"},{"EPHEMERIS_TYPE":"0","CLASSIFICATION_TYPE":"U","TLE_LINE2":"2 53009  53.2174  35.4833 0001057  76.6809 283.4301 15.08855181 47707","COUNTRY_CODE":"US","MEAN_ELEMENT_THEORY":"SGP4","RCS_SIZE":"LARGE","NORAD_CAT_ID":"53009","DECAY_DATE":null,"MEAN_MOTION_DDOT":"0.0000000000000","EPOCH":"2023-05-13T00:22:54.630048","GP_ID":"231685435","ECCENTRICITY":"0.00010570","FILE":"3906347","TLE_LINE1":"1 53009U 22076Z   23133.01591007  .00006667  00000-0  43642-3 0  9996","SEMIMAJOR_AXIS":"6917.834","REF_FRAME":"TEME","BSTAR":"0.00043642000000","RA_OF_ASC_NODE":"35.4833","PERIAPSIS":"538.968","LAUNCH_DATE":"2022-07-07","ARG_OF_PERICENTER":"76.6809","REV_AT_EPOCH":"4770","OBJECT_ID":"2022-076Z","ELEMENT_SET_NO":"999","INCLINATION":"53.2174","MEAN_MOTION":"15.08855181","MEAN_ANOMALY":"283.4301","TIME_SYSTEM":"UTC","CENTER_NAME":"EARTH","SITE":"AFETR","PERIOD":"95.437","OBJECT_TYPE":"PAYLOAD","MEAN_MOTION_DOT":"0.00006667","APOAPSIS":"540.430","OBJECT_NAME":"STARLINK-4277"},{"FILE":"3906347","GP_ID":"231685436","ECCENTRICITY":"0.00013120","TLE_LINE1":"1 53010U 22076AA  23133.03339439  .00006155  00000-0  40423-3 0  9995","DECAY_DATE":null,"MEAN_MOTION_DDOT":"0.0000000000000","EPOCH":"2023-05-13T00:48:05.275296","TLE_LINE2":"2 53010  53.2170  45.4034 0001312  79.7799 280.3341 15.08860089 47573","MEAN_ELEMENT_THEORY":"SGP4","COUNTRY_CODE":"US","CLASSIFICATION_TYPE":"U","RCS_SIZE":"LARGE","NORAD_CAT_ID":"53010","EPHEMERIS_TYPE":"0","OBJECT_TYPE":"PAYLOAD","OBJECT_NAME":"STARLINK-4263","MEAN_MOTION_DOT":"0.00006155","APOAPSIS":"540.592","MEAN_MOTION":"15.08860089","SITE":"AFETR","CENTER_NAME":"EARTH","PERIOD":"95.436","TIME_SYSTEM":"UTC","MEAN_ANOMALY":"280.3341","ARG_OF_PERICENTER":"79.7799","REV_AT_EPOCH":"4757","PERIAPSIS":"538.776","LAUNCH_DATE":"2022-07-07","INCLINATION":"53.2170","ELEMENT_SET_NO":"999","OBJECT_ID":"2022-076AA","SEMIMAJOR_AXIS":"6917.819","REF_FRAME":"TEME","BSTAR":"0.00040423000000","RA_OF_ASC_NODE":"45.4034"},{"EPHEMERIS_TYPE":"0","COUNTRY_CODE":"US","MEAN_ELEMENT_THEORY":"SGP4","TLE_LINE2":"2 53011  53.2168  35.4939 0001187  93.0107 267.1021 15.08852887 47706","CLASSIFICATION_TYPE":"U","NORAD_CAT_ID":"53011","RCS_SIZE":"LARGE","EPOCH":"2023-05-13T00:17:35.482272","DECAY_DATE":null,"MEAN_MOTION_DDOT":"0.0000000000000","FILE":"3906360","ECCENTRICITY":"0.00011870","GP_ID":"231685516","TLE_LINE1":"1 53011U 22076AB  23133.01221623  .00003367  00000-0  22948-3 0  9993","SEMIMAJOR_AXIS":"6917.841","REF_FRAME":"TEME","BSTAR":"0.00022948000000","RA_OF_ASC_NODE":"35.4939","REV_AT_EPOCH":"4770","ARG_OF_PERICENTER":"93.0107","LAUNCH_DATE":"2022-07-07","PERIAPSIS":"538.885","ELEMENT_SET_NO":"999","INCLINATION":"53.2168","OBJECT_ID":"2022-076AB","MEAN_MOTION":"15.08852887","PERIOD":"95.437","SITE":"AFETR","CENTER_NAME":"EARTH","TIME_SYSTEM":"UTC","MEAN_ANOMALY":"267.1021","OBJECT_TYPE":"PAYLOAD","OBJECT_NAME":"STARLINK-4265","APOAPSIS":"540.527","MEAN_MOTION_DOT":"0.00003367"}];
